0 SL-8 R/B
1 14085U 83048B   13281.11427645  .00000059  00000-0  45218-4 0   120
2 14085 082.9476 010.3939 0032256 272.6575 128.0840 13.76171483525245
0 SL-8 R/B
1 14085U 83048B   13283.15093007  .00000050  00000-0  36087-4 0   133
2 14085 082.9477 008.8829 0032294 266.7279 138.3443 13.76171756525520
0 SL-8 R/B
1 14085U 83048B   13287.36974596  .00000079  00000-0  65548-4 0   158
2 14085 082.9473 005.7533 0032364 254.4223 159.7912 13.76171727526106
0 SL-8 R/B
1 14085U 83048B   13289.64226664  .00000086  00000-0  72352-4 0   167
2 14085 082.9469 004.0677 0032496 247.9203 258.5042 13.76172012526417
0 SL-8 R/B
1 14085U 83048B   13292.16910378  .00000075  00000-0  61106-4 0   174
2 14085 082.9463 002.1930 0032633 240.6542 177.2124 13.76172581526768
0 SL-8 R/B
1 14085U 83048B   13294.20374296  .00000050  00000-0  35638-4 0   189
2 14085 082.9462 000.6834 0032722 234.7741 177.4561 13.76172894527043
